TROLL                   
1 62658U 25009BB  26068.22522958  .00013174  00000+0  48220-3 0  9994
2 62658  97.3932 150.7169 0001816  59.1850 300.9568 15.28164315118170
STARLINK-33766          
1 63472U 25070N   26068.89394245  .00029098  00000+0  10628-2 0  9998
2 63472  43.0000 258.9945 0001886 280.8549  79.2090 15.27578942 53007
